STARLINK-31148          
1 58741U 24005P   24031.58335648 -.02144484  00000+0 -68251-1 0  9999
2 58741  43.0002  80.1850 0001557 269.4340   5.8524 15.35235932  4819
STARLINK-31151          
1 58742U 24005Q   24031.58335648 -.02145453  00000+0 -66815-1 0  9991
2 58742  43.0002  80.1619 0001540 270.3079  14.7878 15.35908745  4927
STARLINK-31156          
1 58743U 24005R   24031.58335648 -.02150663  00000+0 -65542-1 0  9997
2 58743  43.0000  80.1380 0001527 275.9792  18.5786 15.36583650  4867
STARLINK-31167          
1 58744U 24005S   24031.58335648 -.02157810  00000+0 -64351-1 0  9996
2 58744  42.9999  80.1159 0001407 275.3112  28.3626 15.37259305  4864
STARLINK-31176          
1 58745U 24005T   24031.58335648 -.02152530  00000+0 -62780-1 0  9995
2 58745  43.0001  80.0951 0001491 275.8552  36.5887 15.37929350  4826
STARLINK-31181          
1 58746U 24005U   24031.58335648 -.02147928  00000+0 -69256-1 0  9996
2 58746  43.0000  79.8213 0001354 280.2520 139.2008 15.34839574  4872
STARLINK-31183          
1 58747U 24005V   24031.58335648 -.02152927  00000+0 -61496-1 0  9990
2 58747  43.0000  80.0733 0001387 266.5913  54.6996 15.38563888  4921
STARLINK-31165          
1 58748U 24005W   24031.58335648 -.02153439  00000+0 -60157-1 0  9993
2 58748  42.9999  80.0534 0001542 280.2038  49.1833 15.39236152  4820
STARLINK-31160          
1 58749U 24005X   24031.58335648 -.01867776  00000+0 -32837-1 0  9993
2 58749  42.9999  78.7896 0001039 281.1666 196.2887 15.53163848  4835
STARLINK-31179          
1 58750U 24005Y   24031.58335648 -.02153921  00000+0 -58921-1 0  9998
2 58750  43.0001  80.0325 0001359 273.5520  64.0483 15.39870050  4822
VULCAN CENTAUR R/B      
1 58752U 24006B   24008.31572917  .00000148  00000+0  00000+0 0  9999
2 58752  30.0000  29.8668 0004000 321.7000 177.4980 15.23529836    08
EINSTEIN PROBE          
1 58753U 24007A   24031.46916258  .00003961  00000+0  35675-3 0  9999
2 58753  28.9989  63.8023 0011460 157.0274 203.0836 14.93253270  3321
CZ-2C R/B               
1 58754U 24007B   24031.42315633  .00010291  00000+0  45320-3 0  9998
2 58754  29.0183  59.3755 0113026 219.3988 139.8348 15.14478213  3310
NANOFF B                
1 58755U 23185S   24031.43916170  .00003727  00000+0  28838-3 0  9990
2 58755  97.6400 100.3247 0016649  41.7360 318.5131 15.01978753  3137
