[
  {
    "OBJECT_NAME": "STARLINK-31148",
    "OBJECT_ID": "2024-005P",
    "EPOCH": "2024-01-31T14:00:01.999872",
    "MEAN_MOTION": 15.35235932,
    "ECCENTRICITY": 0.0001557,
    "INCLINATION": 43.0002,
    "RA_OF_ASC_NODE": 80.185,
    "ARG_OF_PERICENTER": 269.434,
    "MEAN_ANOMALY": 5.8524,
    "EPHEMERIS_TYPE": 0,
    "CLASSIFICATION_TYPE": "U",
    "NORAD_CAT_ID": 58741,
    "ELEMENT_SET_NO": 999,
    "REV_AT_EPOCH": 481,
    "BSTAR": -0.068251,
    "MEAN_MOTION_DOT": -0.02144484,
    "MEAN_MOTION_DDOT": 0
  },
  {
    "OBJECT_NAME": "STARLINK-31151",
    "OBJECT_ID": "2024-005Q",
    "EPOCH": "2024-01-31T14:00:01.999872",
    "MEAN_MOTION": 15.35908745,
    "ECCENTRICITY": 0.000154,
    "INCLINATION": 43.0002,
    "RA_OF_ASC_NODE": 80.1619,
    "ARG_OF_PERICENTER": 270.3079,
    "MEAN_ANOMALY": 14.7878,
    "EPHEMERIS_TYPE": 0,
    "CLASSIFICATION_TYPE": "U",
    "NORAD_CAT_ID": 58742,
    "ELEMENT_SET_NO": 999,
    "REV_AT_EPOCH": 492,
    "BSTAR": -0.066815,
    "MEAN_MOTION_DOT": -0.02145453,
    "MEAN_MOTION_DDOT": 0
  },
  {
    "OBJECT_NAME": "STARLINK-31156",
    "OBJECT_ID": "2024-005R",
    "EPOCH": "2024-01-31T14:00:01.999872",
    "MEAN_MOTION": 15.3658365,
    "ECCENTRICITY": 0.0001527,
    "INCLINATION": 43,
    "RA_OF_ASC_NODE": 80.138,
    "ARG_OF_PERICENTER": 275.9792,
    "MEAN_ANOMALY": 18.5786,
    "EPHEMERIS_TYPE": 0,
    "CLASSIFICATION_TYPE": "U",
    "NORAD_CAT_ID": 58743,
    "ELEMENT_SET_NO": 999,
    "REV_AT_EPOCH": 486,
    "BSTAR": -0.065542,
    "MEAN_MOTION_DOT": -0.02150663,
    "MEAN_MOTION_DDOT": 0
  },
  {
    "OBJECT_NAME": "STARLINK-31167",
    "OBJECT_ID": "2024-005S",
    "EPOCH": "2024-01-31T14:00:01.999872",
    "MEAN_MOTION": 15.37259305,
    "ECCENTRICITY": 0.0001407,
    "INCLINATION": 42.9999,
    "RA_OF_ASC_NODE": 80.1159,
    "ARG_OF_PERICENTER": 275.3112,
    "MEAN_ANOMALY": 28.3626,
    "EPHEMERIS_TYPE": 0,
    "CLASSIFICATION_TYPE": "U",
    "NORAD_CAT_ID": 58744,
    "ELEMENT_SET_NO": 999,
    "REV_AT_EPOCH": 486,
    "BSTAR": -0.064351,
    "MEAN_MOTION_DOT": -0.0215781,
    "MEAN_MOTION_DDOT": 0
  },
  {
    "OBJECT_NAME": "STARLINK-31176",
    "OBJECT_ID": "2024-005T",
    "EPOCH": "2024-01-31T14:00:01.999872",
    "MEAN_MOTION": 15.3792935,
    "ECCENTRICITY": 0.0001491,
    "INCLINATION": 43.0001,
    "RA_OF_ASC_NODE": 80.0951,
    "ARG_OF_PERICENTER": 275.8552,
    "MEAN_ANOMALY": 36.5887,
    "EPHEMERIS_TYPE": 0,
    "CLASSIFICATION_TYPE": "U",
    "NORAD_CAT_ID": 58745,
    "ELEMENT_SET_NO": 999,
    "REV_AT_EPOCH": 482,
    "BSTAR": -0.06278,
    "MEAN_MOTION_DOT": -0.0215253,
    "MEAN_MOTION_DDOT": 0
  },
  {
    "OBJECT_NAME": "STARLINK-31181",
    "OBJECT_ID": "2024-005U",
    "EPOCH": "2024-01-31T14:00:01.999872",
    "MEAN_MOTION": 15.34839574,
    "ECCENTRICITY": 0.0001354,
    "INCLINATION": 43,
    "RA_OF_ASC_NODE": 79.8213,
    "ARG_OF_PERICENTER": 280.252,
    "MEAN_ANOMALY": 139.2008,
    "EPHEMERIS_TYPE": 0,
    "CLASSIFICATION_TYPE": "U",
    "NORAD_CAT_ID": 58746,
    "ELEMENT_SET_NO": 999,
    "REV_AT_EPOCH": 487,
    "BSTAR": -0.069256,
    "MEAN_MOTION_DOT": -0.02147928,
    "MEAN_MOTION_DDOT": 0
  },
  {
    "OBJECT_NAME": "STARLINK-31183",
    "OBJECT_ID": "2024-005V",
    "EPOCH": "2024-01-31T14:00:01.999872",
    "MEAN_MOTION": 15.38563888,
    "ECCENTRICITY": 0.0001387,
    "INCLINATION": 43,
    "RA_OF_ASC_NODE": 80.0733,
    "ARG_OF_PERICENTER": 266.5913,
    "MEAN_ANOMALY": 54.6996,
    "EPHEMERIS_TYPE": 0,
    "CLASSIFICATION_TYPE": "U",
    "NORAD_CAT_ID": 58747,
    "ELEMENT_SET_NO": 999,
    "REV_AT_EPOCH": 492,
    "BSTAR": -0.061496,
    "MEAN_MOTION_DOT": -0.02152927,
    "MEAN_MOTION_DDOT": 0
  },
  {
    "OBJECT_NAME": "STARLINK-31165",
    "OBJECT_ID": "2024-005W",
    "EPOCH": "2024-01-31T14:00:01.999872",
    "MEAN_MOTION": 15.39236152,
    "ECCENTRICITY": 0.0001542,
    "INCLINATION": 42.9999,
    "RA_OF_ASC_NODE": 80.0534,
    "ARG_OF_PERICENTER": 280.2038,
    "MEAN_ANOMALY": 49.1833,
    "EPHEMERIS_TYPE": 0,
    "CLASSIFICATION_TYPE": "U",
    "NORAD_CAT_ID": 58748,
    "ELEMENT_SET_NO": 999,
    "REV_AT_EPOCH": 482,
    "BSTAR": -0.060157,
    "MEAN_MOTION_DOT": -0.02153439,
    "MEAN_MOTION_DDOT": 0
  },
  {
    "OBJECT_NAME": "STARLINK-31160",
    "OBJECT_ID": "2024-005X",
    "EPOCH": "2024-01-31T14:00:01.999872",
    "MEAN_MOTION": 15.53163848,
    "ECCENTRICITY": 0.0001039,
    "INCLINATION": 42.9999,
    "RA_OF_ASC_NODE": 78.7896,
    "ARG_OF_PERICENTER": 281.1666,
    "MEAN_ANOMALY": 196.2887,
    "EPHEMERIS_TYPE": 0,
    "CLASSIFICATION_TYPE": "U",
    "NORAD_CAT_ID": 58749,
    "ELEMENT_SET_NO": 999,
    "REV_AT_EPOCH": 483,
    "BSTAR": -0.032837,
    "MEAN_MOTION_DOT": -0.01867776,
    "MEAN_MOTION_DDOT": 0
  },
  {
    "OBJECT_NAME": "STARLINK-31179",
    "OBJECT_ID": "2024-005Y",
    "EPOCH": "2024-01-31T14:00:01.999872",
    "MEAN_MOTION": 15.3987005,
    "ECCENTRICITY": 0.0001359,
    "INCLINATION": 43.0001,
    "RA_OF_ASC_NODE": 80.0325,
    "ARG_OF_PERICENTER": 273.552,
    "MEAN_ANOMALY": 64.0483,
    "EPHEMERIS_TYPE": 0,
    "CLASSIFICATION_TYPE": "U",
    "NORAD_CAT_ID": 58750,
    "ELEMENT_SET_NO": 999,
    "REV_AT_EPOCH": 482,
    "BSTAR": -0.058921,
    "MEAN_MOTION_DOT": -0.02153921,
    "MEAN_MOTION_DDOT": 0
  },
  {
    "OBJECT_NAME": "VULCAN CENTAUR R/B",
    "OBJECT_ID": "2024-006B",
    "EPOCH": "2024-01-08T07:34:39.000288",
    "MEAN_MOTION": 15.23529836,
    "ECCENTRICITY": 0.0004,
    "INCLINATION": 30,
    "RA_OF_ASC_NODE": 29.8668,
    "ARG_OF_PERICENTER": 321.7,
    "MEAN_ANOMALY": 177.498,
    "EPHEMERIS_TYPE": 0,
    "CLASSIFICATION_TYPE": "U",
    "NORAD_CAT_ID": 58752,
    "ELEMENT_SET_NO": 999,
    "REV_AT_EPOCH": 0,
    "BSTAR": 0,
    "MEAN_MOTION_DOT": 1.48e-06,
    "MEAN_MOTION_DDOT": 0
  },
  {
    "OBJECT_NAME": "EINSTEIN PROBE",
    "OBJECT_ID": "2024-007A",
    "EPOCH": "2024-01-31T11:15:35.646912",
    "MEAN_MOTION": 14.9325327,
    "ECCENTRICITY": 0.001146,
    "INCLINATION": 28.9989,
    "RA_OF_ASC_NODE": 63.8023,
    "ARG_OF_PERICENTER": 157.0274,
    "MEAN_ANOMALY": 203.0836,
    "EPHEMERIS_TYPE": 0,
    "CLASSIFICATION_TYPE": "U",
    "NORAD_CAT_ID": 58753,
    "ELEMENT_SET_NO": 999,
    "REV_AT_EPOCH": 332,
    "BSTAR": 0.00035675,
    "MEAN_MOTION_DOT": 3.961e-05,
    "MEAN_MOTION_DDOT": 0
  },
  {
    "OBJECT_NAME": "CZ-2C R/B",
    "OBJECT_ID": "2024-007B",
    "EPOCH": "2024-01-31T10:09:20.706912",
    "MEAN_MOTION": 15.14478213,
    "ECCENTRICITY": 0.0113026,
    "INCLINATION": 29.0183,
    "RA_OF_ASC_NODE": 59.3755,
    "ARG_OF_PERICENTER": 219.3988,
    "MEAN_ANOMALY": 139.8348,
    "EPHEMERIS_TYPE": 0,
    "CLASSIFICATION_TYPE": "U",
    "NORAD_CAT_ID": 58754,
    "ELEMENT_SET_NO": 999,
    "REV_AT_EPOCH": 331,
    "BSTAR": 0.0004532,
    "MEAN_MOTION_DOT": 0.00010291,
    "MEAN_MOTION_DDOT": 0
  },
  {
    "OBJECT_NAME": "NANOFF B",
    "OBJECT_ID": "2023-185S",
    "EPOCH": "2024-01-31T10:32:23.570880",
    "MEAN_MOTION": 15.01978753,
    "ECCENTRICITY": 0.0016649,
    "INCLINATION": 97.64,
    "RA_OF_ASC_NODE": 100.3247,
    "ARG_OF_PERICENTER": 41.736,
    "MEAN_ANOMALY": 318.5131,
    "EPHEMERIS_TYPE": 0,
    "CLASSIFICATION_TYPE": "U",
    "NORAD_CAT_ID": 58755,
    "ELEMENT_SET_NO": 999,
    "REV_AT_EPOCH": 313,
    "BSTAR": 0.00028838,
    "MEAN_MOTION_DOT": 3.727e-05,
    "MEAN_MOTION_DDOT": 0
  }
]